{
  "type": "FeatureCollection",
  "features": [
    {
      "type": "Feature",
      "properties": {
        "norad_id": 35108,
        "name": "FENGYUN 1C DEB",
        "group": "fengyun-1c-debris",
        "lat": 46.40654224511861,
        "lon": 179.72284156747233,
        "alt_km": 871.9036963499557,
        "timestamp": "2025-12-20T22:39:10.912075+00:00",
        "meta_object_name": "FENGYUN 1C DEB",
        "meta_object_id": "1999-025DKL",
        "meta_epoch": "2025-12-14T17:32:43.265184",
        "meta_mean_motion": 14.06913766,
        "meta_eccentricity": 0.01353379,
        "meta_inclination": 98.801,
        "meta_ra_of_asc_node": 344.3103,
        "meta_arg_of_pericenter": 55.9263,
        "meta_mean_anomaly": 305.4667,
        "meta_ephemeris_type": 0,
        "meta_classification_type": "U",
        "meta_norad_cat_id": 35108,
        "meta_element_set_no": 999,
        "meta_rev_at_epoch": 89266,
        "meta_bstar": 0.00032621951,
        "meta_mean_motion_dot": 5.49e-06,
        "meta_mean_motion_ddot": 0,
        "tle_line1": "1 35108U 99025DKL 25348.73105631  .00000549  00000+0  32622-3 0  9995",
        "tle_line2": "2 35108  98.8010 344.3103 0135337  55.9263 305.4667 14.06913766892660"
      },
      "geometry": {
        "type": "Point",
        "coordinates": [
          179.72284156747233,
          46.40654224511861
        ]
      }
    },
    {
      "type": "Feature",
      "properties": {
        "norad_id": 35109,
        "name": "FENGYUN 1C DEB",
        "group": "fengyun-1c-debris",
        "lat": -20.76627807525233,
        "lon": -12.680988710543177,
        "alt_km": 733.1724907291773,
        "timestamp": "2025-12-20T22:39:10.912083+00:00",
        "meta_object_name": "FENGYUN 1C DEB",
        "meta_object_id": "1999-025DKM",
        "meta_epoch": "2025-12-18T04:50:17.969568",
        "meta_mean_motion": 14.20883962,
        "meta_eccentricity": 0.01531157,
        "meta_inclination": 98.6156,
        "meta_ra_of_asc_node": 341.3486,
        "meta_arg_of_pericenter": 18.6394,
        "meta_mean_anomaly": 342.0307,
        "meta_ephemeris_type": 0,
        "meta_classification_type": "U",
        "meta_norad_cat_id": 35109,
        "meta_element_set_no": 999,
        "meta_rev_at_epoch": 64237,
        "meta_bstar": 0.00026485405,
        "meta_mean_motion_dot": 6.02e-06,
        "meta_mean_motion_ddot": 0,
        "tle_line1": "1 35109U 99025DKM 25352.20159687  .00000602  00000+0  26485-3 0  9993",
        "tle_line2": "2 35109  98.6156 341.3486 0153115  18.6394 342.0307 14.20883962642375"
      },
      "geometry": {
        "type": "Point",
        "coordinates": [
          -12.680988710543177,
          -20.76627807525233
        ]
      }
    },
    {
      "type": "Feature",
      "properties": {
        "norad_id": 35111,
        "name": "FENGYUN 1C DEB",
        "group": "fengyun-1c-debris",
        "lat": -77.11875458966347,
        "lon": -152.81539899802905,
        "alt_km": 856.3466961544391,
        "timestamp": "2025-12-20T22:39:10.912092+00:00",
        "meta_object_name": "FENGYUN 1C DEB",
        "meta_object_id": "1999-025DKP",
        "meta_epoch": "2025-12-16T11:54:10.013472",
        "meta_mean_motion": 14.10973478,
        "meta_eccentricity": 0.0021869,
        "meta_inclination": 99.4657,
        "meta_ra_of_asc_node": 69.3478,
        "meta_arg_of_pericenter": 209.5025,
        "meta_mean_anomaly": 150.4911,
        "meta_ephemeris_type": 0,
        "meta_classification_type": "U",
        "meta_norad_cat_id": 35111,
        "meta_element_set_no": 999,
        "meta_rev_at_epoch": 64197,
        "meta_bstar": 0.00043746639,
        "meta_mean_motion_dot": 7.38e-06,
        "meta_mean_motion_ddot": 0,
        "tle_line1": "1 35111U 99025DKP 25350.49594923  .00000738  00000+0  43747-3 0  9991",
        "tle_line2": "2 35111  99.4657  69.3478 0021869 209.5025 150.4911 14.10973478641971"
      },
      "geometry": {
        "type": "Point",
        "coordinates": [
          -152.81539899802905,
          -77.11875458966347
        ]
      }
    },
    {
      "type": "Feature",
      "properties": {
        "norad_id": 35116,
        "name": "FENGYUN 1C DEB",
        "group": "fengyun-1c-debris",
        "lat": -21.479511892074925,
        "lon": -142.63501449102574,
        "alt_km": 855.8504644533305,
        "timestamp": "2025-12-20T22:39:10.912101+00:00",
        "meta_object_name": "FENGYUN 1C DEB",
        "meta_object_id": "1999-025DKU",
        "meta_epoch": "2025-12-10T22:26:07.135584",
        "meta_mean_motion": 14.25062569,
        "meta_eccentricity": 0.0059356,
        "meta_inclination": 98.6618,
        "meta_ra_of_asc_node": 30.9255,
        "meta_arg_of_pericenter": 54.5271,
        "meta_mean_anomaly": 306.1428,
        "meta_ephemeris_type": 0,
        "meta_classification_type": "U",
        "meta_norad_cat_id": 35116,
        "meta_element_set_no": 999,
        "meta_rev_at_epoch": 59934,
        "meta_bstar": 0.0014341,
        "meta_mean_motion_dot": 3.381e-05,
        "meta_mean_motion_ddot": 0,
        "tle_line1": "1 35116U 99025DKU 25344.93480481  .00003381  00000+0  14341-2 0  9995",
        "tle_line2": "2 35116  98.6618  30.9255 0059356  54.5271 306.1428 14.25062569599346"
      },
      "geometry": {
        "type": "Point",
        "coordinates": [
          -142.63501449102574,
          -21.479511892074925
        ]
      }
    },
    {
      "type": "Feature",
      "properties": {
        "norad_id": 35121,
        "name": "FENGYUN 1C DEB",
        "group": "fengyun-1c-debris",
        "lat": 36.61764767960465,
        "lon": 43.73156845553284,
        "alt_km": 832.760042637422,
        "timestamp": "2025-12-20T22:39:10.912110+00:00",
        "meta_object_name": "FENGYUN 1C DEB",
        "meta_object_id": "1999-025DKZ",
        "meta_epoch": "2025-12-14T20:41:20.055552",
        "meta_mean_motion": 14.04750382,
        "meta_eccentricity": 0.01586034,
        "meta_inclination": 98.3008,
        "meta_ra_of_asc_node": 211.9365,
        "meta_arg_of_pericenter": 90.6719,
        "meta_mean_anomaly": 271.2626,
        "meta_ephemeris_type": 0,
        "meta_classification_type": "U",
        "meta_norad_cat_id": 35121,
        "meta_element_set_no": 999,
        "meta_rev_at_epoch": 61121,
        "meta_bstar": 0.00012700781,
        "meta_mean_motion_dot": 1.91e-06,
        "meta_mean_motion_ddot": 0,
        "tle_line1": "1 35121U 99025DKZ 25348.86203768  .00000191  00000+0  12701-3 0  9993",
        "tle_line2": "2 35121  98.3008 211.9365 0158603  90.6719 271.2626 14.04750382611215"
      },
      "geometry": {
        "type": "Point",
        "coordinates": [
          43.73156845553284,
          36.61764767960465
        ]
      }
    },
    {
      "type": "Feature",
      "properties": {
        "norad_id": 35122,
        "name": "FENGYUN 1C DEB",
        "group": "fengyun-1c-debris",
        "lat": -20.781618189689777,
        "lon": 16.434504971672048,
        "alt_km": 867.1720118953062,
        "timestamp": "2025-12-20T22:39:10.912119+00:00",
        "meta_object_name": "FENGYUN 1C DEB",
        "meta_object_id": "1999-025DLA",
        "meta_epoch": "2025-12-16T06:40:38.257248",
        "meta_mean_motion": 14.14128348,
        "meta_eccentricity": 0.00254765,
        "meta_inclination": 98.6718,
        "meta_ra_of_asc_node": 8.5868,
        "meta_arg_of_pericenter": 147.8283,
        "meta_mean_anomaly": 212.4451,
        "meta_ephemeris_type": 0,
        "meta_classification_type": "U",
        "meta_norad_cat_id": 35122,
        "meta_element_set_no": 999,
        "meta_rev_at_epoch": 63917,
        "meta_bstar": 0.00028818425,
        "meta_mean_motion_dot": 5.08e-06,
        "meta_mean_motion_ddot": 0,
        "tle_line1": "1 35122U 99025DLA 25350.27822057  .00000508  00000+0  28818-3 0  9998",
        "tle_line2": "2 35122  98.6718   8.5868 0025476 147.8283 212.4451 14.14128348639177"
      },
      "geometry": {
        "type": "Point",
        "coordinates": [
          16.434504971672048,
          -20.781618189689777
        ]
      }
    },
    {
      "type": "Feature",
      "properties": {
        "norad_id": 35123,
        "name": "FENGYUN 1C DEB",
        "group": "fengyun-1c-debris",
        "lat": 70.31705525312637,
        "lon": 151.24718920603885,
        "alt_km": 770.5891956615287,
        "timestamp": "2025-12-20T22:39:10.912127+00:00",
        "meta_object_name": "FENGYUN 1C DEB",
        "meta_object_id": "1999-025DLB",
        "meta_epoch": "2025-12-19T10:54:35.489088",
        "meta_mean_motion": 14.2423349,
        "meta_eccentricity": 0.0049602,
        "meta_inclination": 99.1223,
        "meta_ra_of_asc_node": 176.3926,
        "meta_arg_of_pericenter": 57.2022,
        "meta_mean_anomaly": 303.3919,
        "meta_ephemeris_type": 0,
        "meta_classification_type": "U",
        "meta_norad_cat_id": 35123,
        "meta_element_set_no": 999,
        "meta_rev_at_epoch": 61169,
        "meta_bstar": 0.00041167,
        "meta_mean_motion_dot": 9.14e-06,
        "meta_mean_motion_ddot": 0,
        "tle_line1": "1 35123U 99025DLB 25353.45457742  .00000914  00000+0  41167-3 0  9990",
        "tle_line2": "2 35123  99.1223 176.3926 0049602  57.2022 303.3919 14.24233490611698"
      },
      "geometry": {
        "type": "Point",
        "coordinates": [
          151.24718920603885,
          70.31705525312637
        ]
      }
    }
  ]
}